
[{"ORDINAL":"2","COMMENT":"GENERATED VIA SPACETRACK.ORG API","ORIGINATOR":"JSPOC","NORAD_CAT_ID":"39619","OBJECT_NAME":"ARIANE 5 DEB (SYLDA)","OBJECT_TYPE":"DEBRIS","CLASSIFICATION_TYPE":"U","INTLDES":"14011D","EPOCH":"2015-04-10 02:46:02","EPOCH_MICROSECONDS":"473824","MEAN_MOTION":"2.85286718","ECCENTRICITY":"0.6845134","INCLINATION":"2.5737","RA_OF_ASC_NODE":"158.7147","ARG_OF_PERICENTER":"172.5225","MEAN_ANOMALY":"208.9781","EPHEMERIS_TYPE":"0","ELEMENT_SET_NO":"999","REV_AT_EPOCH":"941","BSTAR":"0.0088197","MEAN_MOTION_DOT":"0.00047526","MEAN_MOTION_DDOT":"0","FILE":"1853999","TLE_LINE0":"0 ARIANE 5 DEB (SYLDA)","TLE_LINE1":"1 39619U 14011D   15100.11530641  .00047526  00000-0  88197-2 0  9992","TLE_LINE2":"2 39619 002.5737 158.7147 6845134 172.5225 208.9781 02.85286718  9418","OBJECT_ID":"2014-011D","OBJECT_NUMBER":"39619"},{"ORDINAL":"1","COMMENT":"GENERATED VIA SPACETRACK.ORG API","ORIGINATOR":"JSPOC","NORAD_CAT_ID":"39628","OBJECT_NAME":"CZ-2C DEB","OBJECT_TYPE":"DEBRIS","CLASSIFICATION_TYPE":"U","INTLDES":"14014E","EPOCH":"2015-04-10 02:55:26","EPOCH_MICROSECONDS":"252832","MEAN_MOTION":"14.50146242","ECCENTRICITY":"0.0110147","INCLINATION":"98.4513","RA_OF_ASC_NODE":"160.5179","ARG_OF_PERICENTER":"165.3114","MEAN_ANOMALY":"195.1324","EPHEMERIS_TYPE":"0","ELEMENT_SET_NO":"999","REV_AT_EPOCH":"5429","BSTAR":"0.00079708","MEAN_MOTION_DOT":"3.298e-05","MEAN_MOTION_DDOT":"0","FILE":"1853816","TLE_LINE0":"0 CZ-2C DEB","TLE_LINE1":"1 39628U 14014E   15100.12183163  .00003298  00000-0  79708-3 0  9996","TLE_LINE2":"2 39628 098.4513 160.5179 0110147 165.3114 195.1324 14.50146242 54298","OBJECT_ID":"2014-014E","OBJECT_NUMBER":"39628"},{"ORDINAL":"1","COMMENT":"GENERATED VIA SPACETRACK.ORG API","ORIGINATOR":"JSPOC","NORAD_CAT_ID":"40342","OBJECT_NAME":"CZ-4C DEB","OBJECT_TYPE":"DEBRIS","CLASSIFICATION_TYPE":"U","INTLDES":"14080E","EPOCH":"2015-04-10 04:42:46","EPOCH_MICROSECONDS":"542527","MEAN_MOTION":"13.4380342","ECCENTRICITY":"0.0013599","INCLINATION":"63.4195","RA_OF_ASC_NODE":"12.3905","ARG_OF_PERICENTER":"358.7461","MEAN_ANOMALY":"1.3529","EPHEMERIS_TYPE":"0","ELEMENT_SET_NO":"999","REV_AT_EPOCH":"1618","BSTAR":"0","MEAN_MOTION_DOT":"-9e-07","MEAN_MOTION_DDOT":"0","FILE":"1853903","TLE_LINE0":"0 CZ-4C DEB","TLE_LINE1":"1 40342U 14080E   15100.19637202 -.00000090  00000-0  00000+0 0  9992","TLE_LINE2":"2 40342 063.4195 012.3905 0013599 358.7461 001.3529 13.43803420 16188","OBJECT_ID":"2014-080E","OBJECT_NUMBER":"40342"},{"ORDINAL":"2","COMMENT":"GENERATED VIA SPACETRACK.ORG API","ORIGINATOR":"JSPOC","NORAD_CAT_ID":"40289","OBJECT_NAME":"CZ-2C DEB","OBJECT_TYPE":"DEBRIS","CLASSIFICATION_TYPE":"U","INTLDES":"14066D","EPOCH":"2015-04-10 05:18:53","EPOCH_MICROSECONDS":"502047","MEAN_MOTION":"14.48205922","ECCENTRICITY":"0.0112858","INCLINATION":"98.4404","RA_OF_ASC_NODE":"218.9757","ARG_OF_PERICENTER":"83.331","MEAN_ANOMALY":"278.0712","EPHEMERIS_TYPE":"0","ELEMENT_SET_NO":"999","REV_AT_EPOCH":"2385","BSTAR":"0.0012146","MEAN_MOTION_DOT":"4.864e-05","MEAN_MOTION_DDOT":"0","FILE":"1853886","TLE_LINE0":"0 CZ-2C DEB","TLE_LINE1":"1 40289U 14066D   15100.22145257  .00004864  00000-0  12146-2 0  9993","TLE_LINE2":"2 40289 098.4404 218.9757 0112858 083.3310 278.0712 14.48205922 23858","OBJECT_ID":"2014-066D","OBJECT_NUMBER":"40289"},{"ORDINAL":"1","COMMENT":"GENERATED VIA SPACETRACK.ORG API","ORIGINATOR":"JSPOC","NORAD_CAT_ID":"40263","OBJECT_NAME":"CZ-2C DEB","OBJECT_TYPE":"DEBRIS","CLASSIFICATION_TYPE":"U","INTLDES":"14059C","EPOCH":"2015-04-10 05:40:50","EPOCH_MICROSECONDS":"788415","MEAN_MOTION":"14.48348798","ECCENTRICITY":"0.0111904","INCLINATION":"98.3228","RA_OF_ASC_NODE":"190.4408","ARG_OF_PERICENTER":"350.4888","MEAN_ANOMALY":"9.4182","EPHEMERIS_TYPE":"0","ELEMENT_SET_NO":"999","REV_AT_EPOCH":"2807","BSTAR":"0.00069023","MEAN_MOTION_DOT":"2.746e-05","MEAN_MOTION_DDOT":"0","FILE":"1853860","TLE_LINE0":"0 CZ-2C DEB","TLE_LINE1":"1 40263U 14059C   15100.23669894  .00002746  00000-0  69023-3 0  9990","TLE_LINE2":"2 40263 098.3228 190.4408 0111904 350.4888 009.4182 14.48348798 28074","OBJECT_ID":"2014-059C","OBJECT_NUMBER":"40263"},{"ORDINAL":"5","COMMENT":"GENERATED VIA SPACETRACK.ORG API","ORIGINATOR":"JSPOC","NORAD_CAT_ID":"40309","OBJECT_NAME":"CZ-2C DEB","OBJECT_TYPE":"DEBRIS","CLASSIFICATION_TYPE":"U","INTLDES":"14071E","EPOCH":"2015-04-10 06:02:56","EPOCH_MICROSECONDS":"320800","MEAN_MOTION":"15.1532815","ECCENTRICITY":"0.01021","INCLINATION":"97.1396","RA_OF_ASC_NODE":"39.5564","ARG_OF_PERICENTER":"59.7934","MEAN_ANOMALY":"301.2072","EPHEMERIS_TYPE":"0","ELEMENT_SET_NO":"999","REV_AT_EPOCH":"2204","BSTAR":"0.0032802","MEAN_MOTION_DOT":"0.00071038","MEAN_MOTION_DDOT":"0","FILE":"1854121","TLE_LINE0":"0 CZ-2C DEB","TLE_LINE1":"1 40309U 14071E   15100.25204075  .00071038  00000-0  32802-2 0  9997","TLE_LINE2":"2 40309 097.1396 039.5564 0102100 059.7934 301.2072 15.15328150 22040","OBJECT_ID":"2014-071E","OBJECT_NUMBER":"40309"},{"ORDINAL":"1","COMMENT":"GENERATED VIA SPACETRACK.ORG API","ORIGINATOR":"JSPOC","NORAD_CAT_ID":"40288","OBJECT_NAME":"CZ-2C DEB","OBJECT_TYPE":"DEBRIS","CLASSIFICATION_TYPE":"U","INTLDES":"14066C","EPOCH":"2015-04-10 06:04:34","EPOCH_MICROSECONDS":"200767","MEAN_MOTION":"14.18857788","ECCENTRICITY":"0.0191648","INCLINATION":"97.9721","RA_OF_ASC_NODE":"203.0633","ARG_OF_PERICENTER":"47.1853","MEAN_ANOMALY":"314.5251","EPHEMERIS_TYPE":"0","ELEMENT_SET_NO":"999","REV_AT_EPOCH":"2338","BSTAR":"0.00082133","MEAN_MOTION_DOT":"2.014e-05","MEAN_MOTION_DDOT":"0","FILE":"1853882","TLE_LINE0":"0 CZ-2C DEB","TLE_LINE1":"1 40288U 14066C   15100.25317362  .00002014  00000-0  82133-3 0  9992","TLE_LINE2":"2 40288 097.9721 203.0633 0191648 047.1853 314.5251 14.18857788 23387","OBJECT_ID":"2014-066C","OBJECT_NUMBER":"40288"},{"ORDINAL":"1","COMMENT":"GENERATED VIA SPACETRACK.ORG API","ORIGINATOR":"JSPOC","NORAD_CAT_ID":"40078","OBJECT_NAME":"FREGAT DEB","OBJECT_TYPE":"DEBRIS","CLASSIFICATION_TYPE":"U","INTLDES":"14037K","EPOCH":"2015-04-10 06:09:12","EPOCH_MICROSECONDS":"470975","MEAN_MOTION":"14.51711464","ECCENTRICITY":"0.0139511","INCLINATION":"98.3396","RA_OF_ASC_NODE":"155.515","ARG_OF_PERICENTER":"98.4652","MEAN_ANOMALY":"263.2381","EPHEMERIS_TYPE":"0","ELEMENT_SET_NO":"999","REV_AT_EPOCH":"3997","BSTAR":"0.0001475","MEAN_MOTION_DOT":"6.22e-06","MEAN_MOTION_DDOT":"0","FILE":"1854100","TLE_LINE0":"0 FREGAT DEB","TLE_LINE1":"1 40078U 14037K   15100.25639434  .00000622  00000-0  14750-3 0  9997","TLE_LINE2":"2 40078 098.3396 155.5150 0139511 098.4652 263.2381 14.51711464 39972","OBJECT_ID":"2014-037K","OBJECT_NUMBER":"40078"},{"ORDINAL":"2","COMMENT":"GENERATED VIA SPACETRACK.ORG API","ORIGINATOR":"JSPOC","NORAD_CAT_ID":"40279","OBJECT_NAME":"BREEZE-M DEB (TANK)","OBJECT_TYPE":"DEBRIS","CLASSIFICATION_TYPE":"U","INTLDES":"14064C","EPOCH":"2015-04-10 07:04:05","EPOCH_MICROSECONDS":"118815","MEAN_MOTION":"2.16153925","ECCENTRICITY":"0.7405226","INCLINATION":"48.9054","RA_OF_ASC_NODE":"223.1741","ARG_OF_PERICENTER":"37.1594","MEAN_ANOMALY":"355.9686","EPHEMERIS_TYPE":"0","ELEMENT_SET_NO":"999","REV_AT_EPOCH":"366","BSTAR":"0.001315","MEAN_MOTION_DOT":"0.00028603","MEAN_MOTION_DDOT":"-9.9213e-08","FILE":"1853998","TLE_LINE0":"0 BREEZE-M DEB (TANK)","TLE_LINE1":"1 40279U 14064C   15100.29450369  .00028603 -99213-7  13150-2 0  9995","TLE_LINE2":"2 40279 048.9054 223.1741 7405226 037.1594 355.9686 02.16153925  3660","OBJECT_ID":"2014-064C","OBJECT_NUMBER":"40279"},{"ORDINAL":"2","COMMENT":"GENERATED VIA SPACETRACK.ORG API","ORIGINATOR":"JSPOC","NORAD_CAT_ID":"40048","OBJECT_NAME":"SL-24 DEB","OBJECT_TYPE":"DEBRIS","CLASSIFICATION_TYPE":"U","INTLDES":"14033AQ","EPOCH":"2015-04-10 07:37:16","EPOCH_MICROSECONDS":"347647","MEAN_MOTION":"15.05497276","ECCENTRICITY":"0.0039868","INCLINATION":"97.964","RA_OF_ASC_NODE":"6.9611","ARG_OF_PERICENTER":"91.0538","MEAN_ANOMALY":"269.4742","EPHEMERIS_TYPE":"0","ELEMENT_SET_NO":"999","REV_AT_EPOCH":"4411","BSTAR":"0.0015195","MEAN_MOTION_DOT":"0.00022228","MEAN_MOTION_DDOT":"0","FILE":"1854082","TLE_LINE0":"0 SL-24 DEB","TLE_LINE1":"1 40048U 14033AQ  15100.31755032  .00022228  00000-0  15195-2 0  9999","TLE_LINE2":"2 40048 097.9640 006.9611 0039868 091.0538 269.4742 15.05497276 44116","OBJECT_ID":"2014-033AQ","OBJECT_NUMBER":"40048"},{"ORDINAL":"3","COMMENT":"GENERATED VIA SPACETRACK.ORG API","ORIGINATOR":"JSPOC","NORAD_CAT_ID":"39615","OBJECT_NAME":"BREEZE-M DEB (TANK)","OBJECT_TYPE":"DEBRIS","CLASSIFICATION_TYPE":"U","INTLDES":"14010D","EPOCH":"2015-04-10 08:31:18","EPOCH_MICROSECONDS":"680448","MEAN_MOTION":"2.56263049","ECCENTRICITY":"0.7110062","INCLINATION":"48.4082","RA_OF_ASC_NODE":"60.4811","ARG_OF_PERICENTER":"98.1807","MEAN_ANOMALY":"340.8733","EPHEMERIS_TYPE":"0","ELEMENT_SET_NO":"999","REV_AT_EPOCH":"892","BSTAR":"0.00071235","MEAN_MOTION_DOT":"0.00168026","MEAN_MOTION_DDOT":"2.7317e-07","FILE":"1854137","TLE_LINE0":"0 BREEZE-M DEB (TANK)","TLE_LINE1":"1 39615U 14010D   15100.35507732  .00168026  27317-6  71235-3 0  9999","TLE_LINE2":"2 39615 048.4082 060.4811 7110062 098.1807 340.8733 02.56263049  8926","OBJECT_ID":"2014-010D","OBJECT_NUMBER":"39615"},{"ORDINAL":"1","COMMENT":"GENERATED VIA SPACETRACK.ORG API","ORIGINATOR":"JSPOC","NORAD_CAT_ID":"40114","OBJECT_NAME":"CZ-4C DEB","OBJECT_TYPE":"DEBRIS","CLASSIFICATION_TYPE":"U","INTLDES":"14047F","EPOCH":"2015-04-10 11:50:55","EPOCH_MICROSECONDS":"703328","MEAN_MOTION":"13.43579877","ECCENTRICITY":"0.0029942","INCLINATION":"63.4166","RA_OF_ASC_NODE":"86.4574","ARG_OF_PERICENTER":"13.2196","MEAN_ANOMALY":"346.9609","EPHEMERIS_TYPE":"0","ELEMENT_SET_NO":"999","REV_AT_EPOCH":"3282","BSTAR":"0","MEAN_MOTION_DOT":"-9e-07","MEAN_MOTION_DDOT":"0","FILE":"1854127","TLE_LINE0":"0 CZ-4C DEB","TLE_LINE1":"1 40114U 14047F   15100.49370027 -.00000090  00000-0  00000+0 0  9994","TLE_LINE2":"2 40114 063.4166 086.4574 0029942 013.2196 346.9609 13.43579877 32826","OBJECT_ID":"2014-047F","OBJECT_NUMBER":"40114"}]